[Satellite]
VERSION=1.1
NAME=SL-8 R/B
NICKNAME=SL-8 R/B
TLE1=1 20775U 90078B   17186.06982059  .00000740  00000-0  36493-4 0  9997
TLE2=2 20775  82.9284  33.5403 0586955 287.2139  66.5632 14.30688936351335
